COSMOS 2433 (720)       
1 32275U 07052A   24063.16642178 -.00000061  00000+0  00000+0 0  9999
2 32275  65.9706 343.9184 0003068 286.7825  73.2131  2.13103954127242
COSMOS 2432 (719)       
1 32276U 07052B   24063.40085080 -.00000061  00000+0  00000+0 0  9990
2 32276  65.9853 344.0225 0011697 329.7014 156.6939  2.13103288127274
COSMOS 2434 (721)       
1 32393U 07065A   24063.30952184  .00000085  00000+0  00000+0 0  9996
2 32393  64.3263 220.1613 0004540  77.1143 284.5131  2.13103126125963
COSMOS 2436 (723)       
1 32395U 07065C   24063.60086212  .00000084  00000+0  00000+0 0  9990
2 32395  64.3348 220.2149 0016914   8.0710 352.3560  2.13102849125933
COSMOS 2456 (730)       
1 36111U 09070A   24065.15343182  .00000051  00000+0  00000+0 0  9996
2 36111  64.5656  99.5267 0005863 299.1386 193.4359  2.13098983110698
COSMOS 2457 (733)       
1 36112U 09070B   24064.33799384  .00000044  00000+0  00000+0 0  9997
2 36112  64.5492  99.4157 0003868 196.0985 163.1325  2.13101172110633
COSMOS 2460 (732)       
1 36402U 10007C   24064.93951944 -.00000059  00000+0  00000+0 0  9996
2 36402  65.8286 342.5435 0002367 353.7183  97.5911  2.13106151109042
COSMOS 2476 (744)       
1 37867U 11064A   24065.16996804  .00000051  00000+0  00000+0 0  9997
2 37867  64.8412 101.1223 0024499 240.0678 176.1169  2.13101646 96047
COSMOS 2477 (745)       
1 37868U 11064B   24064.59674994  .00000046  00000+0  00000+0 0  9991
2 37868  64.8480 101.2133 0021711 241.3284 272.8704  2.13101460 95968
COSMOS 2475 (743)       
1 37869U 11064C   24065.04015818  .00000050  00000+0  00000+0 0  9992
2 37869  64.8554 101.2121 0026771 255.1341 197.8651  2.13101689 95988
COSMOS 2485 (747)       
1 39155U 13019A   24061.28460148  .00000028  00000+0  00000+0 0  9991
2 39155  64.9980 101.8162 0024702 236.0476 123.7902  2.13101761 84427
COSMOS 2492 (754)       
1 39620U 14012A   24064.99410636 -.00000059  00000+0  00000+0 0  9995
2 39620  65.7110 342.1339 0014533 325.7308  34.2055  2.13103070 77461
COSMOS 2500 (755)       
1 40001U 14032A   24064.23640562 -.00000060  00000+0  00000+0 0  9994
2 40001  65.6488 341.9726 0004773 217.1149 142.8827  2.13106017 75669
COSMOS 2501 (702K)      
1 40315U 14075A   24064.48839784  .00000077  00000+0  00000+0 0  9999
2 40315  63.6283 219.3151 0018546 204.1122 155.7844  2.13101325 72068
COSMOS 2514 (751)       
1 41330U 16008A   24064.00111706 -.00000060  00000+0  00000+0 0  9993
2 41330  65.4446 341.5164 0008779 220.4080 139.5582  2.13102624 62825
COSMOS 2522 (752)       
1 42939U 17055A   24064.78049804  .00000076  00000+0  00000+0 0  9992
2 42939  64.0891 220.3356 0005899 230.2302 129.7015  2.13101823 50192
COSMOS 2527 (756)       
1 43508U 18053A   24064.27018457  .00000044  00000+0  00000+0 0  9993
2 43508  65.1601 101.8455 0009962 240.7698 119.2026  2.13102462 44489
COSMOS 2529 (757)       
1 43687U 18086A   24064.83856174  .00000077  00000+0  00000+0 0  9991
2 43687  64.3047 220.8184 0007115 262.4222  97.4808  2.13102006 41504
COSMOS 2534 (758)       
1 44299U 19030A   24060.49409701  .00000077  00000+0  00000+0 0  9999
2 44299  64.3776 220.9090 0009503 290.3646 110.8075  2.13102175 37051
COSMOS 2544 (759)       
1 44850U 19088A   24064.21411019  .00000043  00000+0  00000+0 0  9997
2 44850  65.1469 101.6866 0015306 259.4227 100.4766  2.13102150 32923
COSMOS 2545 (760)       
1 45358U 20018A   24064.88029313 -.00000060  00000+0  00000+0 0  9991
2 45358  64.7843 341.5827 0008818 259.7600 100.1713  2.13102481 30887
COSMOS 2547 (705K)      
1 46805U 20075A   24058.96787662  .00000062  00000+0  00000+0 0  9993
2 46805  64.6060 220.5693 0005664 234.4254 125.4947  2.13103077 26003
COSMOS 2557 (706K)      
1 52984U 22075A   24064.29373807 -.00000062  00000+0  00000+0 0  9996
2 52984  64.7074 343.7435 0012729 287.3823  72.5070  2.13101686 12913
COSMOS 2559 (707K)      
1 54031U 22130A   24064.23630089 -.00000062  00000+0  00000+0 0  9995
2 54031  64.6789 343.8667 0005614 237.0850 122.8892  2.13101040 10895
COSMOS 2564 (761)       
1 54377U 22161A   24064.89737686  .00000077  00000+0  00000+0 0  9990
2 54377  64.7469 220.4561 0007806 208.0912 151.8505  2.13102027  9852
COSMOS 2569 (703K)      
1 57517U 23114A   24063.97699743  .00000041  00000+0  00000+0 0  9998
2 57517  64.8715 100.8820 0012561 292.7673  67.1710  2.13104160  4462
